{"type": "FeatureCollection", "features": [ {"type": "Feature", "properties": {"norad_id": 33492, "name": "GOSAT (IBUKI)", "group": "resource", "lat": -71.1432862773074, "lon": -111.60982824230557, "alt_km": 676.8426067697819, "timestamp": "2025-12-10T07:43:54.430598+00:00", "meta": {"OBJECT_NAME": "GOSAT (IBUKI)", "OBJECT_ID": "2009-002A", "EPOCH": "2025-12-09T17:29:31.577280", "MEAN_MOTION": 14.67546684, "ECCENTRICITY": 9.48e-05, "INCLINATION": 98.0769, "RA_OF_ASC_NODE": 92.374, "ARG_OF_PERICENTER": 88.233, "MEAN_ANOMALY": 271.8984, "EPHEMERIS_TYPE": 0, "CLASSIFICATION_TYPE": "U", "NORAD_CAT_ID": 33492, "ELEMENT_SET_NO": 999, "REV_AT_EPOCH": 90367, "BSTAR": 0.00030026, "MEAN_MOTION_DOT": 1.655e-05, "MEAN_MOTION_DDOT": 0}, "tle": {"line1": "1 33492U 09002A   25343.72883770  .00001655  00000+0  30026-3 0  9991", "line2": "2 33492  98.0769  92.3740 0000948  88.2330 271.8984 14.67546684903677"}}, "geometry": {"type": "Point", "coordinates": [-111.60982824230557, -71.1432862773074]}}, {"type": "Feature", "properties": {"norad_id": 35681, "name": "DEIMOS-1", "group": "resource", "lat": -81.4926665621653, "lon": -99.95202448192491, "alt_km": 654.5944601382535, "timestamp": "2025-12-10T07:43:54.430609+00:00", "meta": {"OBJECT_NAME": "DEIMOS-1", "OBJECT_ID": "2009-041A", "EPOCH": "2025-12-09T20:45:30.841056", "MEAN_MOTION": 14.74944806, "ECCENTRICITY": 0.0002725, "INCLINATION": 97.7146, "RA_OF_ASC_NODE": 144.6017, "ARG_OF_PERICENTER": 83.9386, "MEAN_ANOMALY": 276.2134, "EPHEMERIS_TYPE": 0, "CLASSIFICATION_TYPE": "U", "NORAD_CAT_ID": 35681, "ELEMENT_SET_NO": 999, "REV_AT_EPOCH": 87897, "BSTAR": 0.0001367, "MEAN_MOTION_DOT": 8.71e-06, "MEAN_MOTION_DDOT": 0}, "tle": {"line1": "1 35681U 09041A   25343.86494029  .00000871  00000+0  13670-3 0  9991", "line2": "2 35681  97.7146 144.6017 0002725  83.9386 276.2134 14.74944806878976"}}, "geometry": {"type": "Point", "coordinates": [-99.95202448192491, -81.4926665621653]}}, {"type": "Feature", "properties": {"norad_id": 35682, "name": "DUBAISAT-1", "group": "resource", "lat": -24.0421517867678, "lon": -68.54995242917033, "alt_km": 655.2853666348392, "timestamp": "2025-12-10T07:43:54.430620+00:00", "meta": {"OBJECT_NAME": "DUBAISAT-1", "OBJECT_ID": "2009-041B", "EPOCH": "2025-12-09T19:24:29.093184", "MEAN_MOTION": 14.74591888, "ECCENTRICITY": 0.0009749, "INCLINATION": 97.9789, "RA_OF_ASC_NODE": 114.5317, "ARG_OF_PERICENTER": 324.7314, "MEAN_ANOMALY": 35.3249, "EPHEMERIS_TYPE": 0, "CLASSIFICATION_TYPE": "U", "NORAD_CAT_ID": 35682, "ELEMENT_SET_NO": 999, "REV_AT_EPOCH": 87718, "BSTAR": 0.00038428, "MEAN_MOTION_DOT": 2.512e-05, "MEAN_MOTION_DDOT": 0}, "tle": {"line1": "1 35682U 09041B   25343.80867006  .00002512  00000+0  38428-3 0  9997", "line2": "2 35682  97.9789 114.5317 0009749 324.7314  35.3249 14.74591888877182"}}, "geometry": {"type": "Point", "coordinates": [-68.54995242917033, -24.0421517867678]}}, {"type": "Feature", "properties": {"norad_id": 35931, "name": "OCEANSAT-2", "group": "resource", "lat": -46.229305796351426, "lon": -6.150880686346989, "alt_km": 903.4609741834211, "timestamp": "2025-12-10T07:43:54.430631+00:00", "meta": {"OBJECT_NAME": "OCEANSAT-2", "OBJECT_ID": "2009-051A", "EPOCH": "2025-12-09T19:56:42.425376", "MEAN_MOTION": 13.9962533, "ECCENTRICITY": 0.0016328, "INCLINATION": 98.2225, "RA_OF_ASC_NODE": 344.7267, "ARG_OF_PERICENTER": 52.637, "MEAN_ANOMALY": 307.6281, "EPHEMERIS_TYPE": 0, "CLASSIFICATION_TYPE": "U", "NORAD_CAT_ID": 35931, "ELEMENT_SET_NO": 999, "REV_AT_EPOCH": 85284, "BSTAR": -7.063e-05, "MEAN_MOTION_DOT": -1.41e-06, "MEAN_MOTION_DDOT": 0}, "tle": {"line1": "1 35931U 09051A   25343.83104659 -.00000141  00000+0 -70630-4 0  9996", "line2": "2 35931  98.2225 344.7267 0016328  52.6370 307.6281 13.99625330852842"}}, "geometry": {"type": "Point", "coordinates": [-6.150880686346989, -46.229305796351426]}}, {"type": "Feature", "properties": {"norad_id": 35946, "name": "WORLDVIEW-2 (WV-2)", "group": "resource", "lat": 73.72145771376634, "lon": -93.85124699308197, "alt_km": 755.9298951968503, "timestamp": "2025-12-10T07:43:54.430642+00:00", "meta": {"OBJECT_NAME": "WORLDVIEW-2 (WV-2)", "OBJECT_ID": "2009-055A", "EPOCH": "2025-12-09T19:33:29.210688", "MEAN_MOTION": 14.37650968, "ECCENTRICITY": 0.0005359, "INCLINATION": 98.4763, "RA_OF_ASC_NODE": 54.9398, "ARG_OF_PERICENTER": 73.9963, "MEAN_ANOMALY": 286.1814, "EPHEMERIS_TYPE": 0, "CLASSIFICATION_TYPE": "U", "NORAD_CAT_ID": 35946, "ELEMENT_SET_NO": 999, "REV_AT_EPOCH": 84843, "BSTAR": 0.00012907, "MEAN_MOTION_DOT": 3.44e-06, "MEAN_MOTION_DDOT": 0}, "tle": {"line1": "1 35946U 09055A   25343.81492142  .00000344  00000+0  12907-3 0  9996", "line2": "2 35946  98.4763  54.9398 0005359  73.9963 286.1814 14.37650968848439"}}, "geometry": {"type": "Point", "coordinates": [-93.85124699308197, 73.72145771376634]}}, {"type": "Feature", "properties": {"norad_id": 36036, "name": "SMOS", "group": "resource", "lat": 57.50270052095267, "lon": 2.881889109860341, "alt_km": 753.2004019118294, "timestamp": "2025-12-10T07:43:54.430653+00:00", "meta": {"OBJECT_NAME": "SMOS", "OBJECT_ID": "2009-059A", "EPOCH": "2025-12-09T11:09:16.407072", "MEAN_MOTION": 14.39737201, "ECCENTRICITY": 0.00011103, "INCLINATION": 98.4382, "RA_OF_ASC_NODE": 168.5617, "ARG_OF_PERICENTER": 84.4933, "MEAN_ANOMALY": 275.6382, "EPHEMERIS_TYPE": 0, "CLASSIFICATION_TYPE": "U", "NORAD_CAT_ID": 36036, "ELEMENT_SET_NO": 999, "REV_AT_EPOCH": 84615, "BSTAR": 0.00024021854, "MEAN_MOTION_DOT": 7.09e-06, "MEAN_MOTION_DDOT": 0}, "tle": {"line1": "1 36036U 09059A   25343.46477323  .00000709  00000+0  24022-3 0  9992", "line2": "2 36036  98.4382 168.5617 0001110  84.4933 275.6382 14.39737201846156"}}, "geometry": {"type": "Point", "coordinates": [2.881889109860341, 57.50270052095267]}}, {"type": "Feature", "properties": {"norad_id": 36110, "name": "YAOGAN-7", "group": "resource", "lat": -23.391720926391454, "lon": -130.41134966319555, "alt_km": 630.7149286599288, "timestamp": "2025-12-10T07:43:54.430667+00:00", "meta": {"OBJECT_NAME": "YAOGAN-7", "OBJECT_ID": "2009-069A", "EPOCH": "2025-12-09T15:35:14.157024", "MEAN_MOTION": 14.7772571, "ECCENTRICITY": 0.0023458, "INCLINATION": 98.0302, "RA_OF_ASC_NODE": 225.4175, "ARG_OF_PERICENTER": 291.8264, "MEAN_ANOMALY": 68.0451, "EPHEMERIS_TYPE": 0, "CLASSIFICATION_TYPE": "U", "NORAD_CAT_ID": 36110, "ELEMENT_SET_NO": 999, "REV_AT_EPOCH": 86163, "BSTAR": 0.00017339, "MEAN_MOTION_DOT": 1.195e-05, "MEAN_MOTION_DDOT": 0}, "tle": {"line1": "1 36110U 09069A   25343.64946941  .00001195  00000+0  17339-3 0  9996", "line2": "2 36110  98.0302 225.4175 0023458 291.8264  68.0451 14.77725710861634"}}, "geometry": {"type": "Point", "coordinates": [-130.41134966319555, -23.391720926391454]}}, {"type": "Feature", "properties": {"norad_id": 36605, "name": "TANDEM-X", "group": "resource", "lat": -41.785169941647794, "lon": 163.02762427187793, "alt_km": 516.113152040165, "timestamp": "2025-12-10T07:43:54.430678+00:00", "meta": {"OBJECT_NAME": "TANDEM-X", "OBJECT_ID": "2010-030A", "EPOCH": "2025-12-09T11:47:13.197408", "MEAN_MOTION": 15.19145601, "ECCENTRICITY": 0.0002009, "INCLINATION": 97.445, "RA_OF_ASC_NODE": 348.9195, "ARG_OF_PERICENTER": 85.8365, "MEAN_ANOMALY": 274.3099, "EPHEMERIS_TYPE": 0, "CLASSIFICATION_TYPE": "U", "NORAD_CAT_ID": 36605, "ELEMENT_SET_NO": 999, "REV_AT_EPOCH": 85784, "BSTAR": 0.00012722, "MEAN_MOTION_DOT": 2.605e-05, "MEAN_MOTION_DDOT": 0}, "tle": {"line1": "1 36605U 10030A   25343.49112497  .00002605  00000+0  12722-3 0  9997", "line2": "2 36605  97.4450 348.9195 0002009  85.8365 274.3099 15.19145601857845"}}, "geometry": {"type": "Point", "coordinates": [163.02762427187793, -41.785169941647794]}}, {"type": "Feature", "properties": {"norad_id": 36795, "name": "CARTOSAT-2B", "group": "resource", "lat": -73.07861966968144, "lon": -173.29297299639487, "alt_km": 649.4337674282451, "timestamp": "2025-12-10T07:43:54.430688+00:00", "meta": {"OBJECT_NAME": "CARTOSAT-2B", "OBJECT_ID": "2010-035A", "EPOCH": "2025-12-09T20:50:22.519680", "MEAN_MOTION": 14.78781889, "ECCENTRICITY": 0.0012934, "INCLINATION": 97.7851, "RA_OF_ASC_NODE": 32.9918, "ARG_OF_PERICENTER": 85.6915, "MEAN_ANOMALY": 274.5774, "EPHEMERIS_TYPE": 0, "CLASSIFICATION_TYPE": "U", "NORAD_CAT_ID": 36795, "ELEMENT_SET_NO": 999, "REV_AT_EPOCH": 83187, "BSTAR": 0.0001058, "MEAN_MOTION_DOT": 7.28e-06, "MEAN_MOTION_DDOT": 0}, "tle": {"line1": "1 36795U 10035A   25343.86831620  .00000728  00000+0  10580-3 0  9993", "line2": "2 36795  97.7851  32.9918 0012934  85.6915 274.5774 14.78781889831878"}}, "geometry": {"type": "Point", "coordinates": [-173.29297299639487, -73.07861966968144]}}, {"type": "Feature", "properties": {"norad_id": 36834, "name": "YAOGAN-10", "group": "resource", "lat": -73.83637207010797, "lon": 32.84185753645737, "alt_km": 623.1163861880286, "timestamp": "2025-12-10T07:43:54.430700+00:00", "meta": {"OBJECT_NAME": "YAOGAN-10", "OBJECT_ID": "2010-038A", "EPOCH": "2025-12-09T21:18:06.054048", "MEAN_MOTION": 14.84585915, "ECCENTRICITY": 0.0001435, "INCLINATION": 97.914, "RA_OF_ASC_NODE": 3.7292, "ARG_OF_PERICENTER": 81.8426, "MEAN_ANOMALY": 41.0934, "EPHEMERIS_TYPE": 0, "CLASSIFICATION_TYPE": "U", "NORAD_CAT_ID": 36834, "ELEMENT_SET_NO": 999, "REV_AT_EPOCH": 82911, "BSTAR": 0.00019441, "MEAN_MOTION_DOT": 1.588e-05, "MEAN_MOTION_DDOT": 0}, "tle": {"line1": "1 36834U 10038A   25343.88757007  .00001588  00000+0  19441-3 0  9998", "line2": "2 36834  97.9140   3.7292 0001435  81.8426  41.0934 14.84585915829113"}}, "geometry": {"type": "Point", "coordinates": [32.84185753645737, -73.83637207010797]}}]}